[
    {
        "Altitude(m)": 604983.0530465464,
        "Argument of Periapsis(deg)": 0.0,
        "Eccentricity": 0.0,
        "Inclination(deg)": 60.0,
        "Latitude(deg)": -0.09271248607462776,
        "Longitude(deg)": -129.9160837415263,
        "Mean Anomaly(deg)": 180.00000000000003,
        "RAAN(deg)": 150.0,
        "Satellite Name": "Test1 671",
        "Satellite Number": 671,
        "Semi-Major Axis(m)": 6980739.136638005,
        "Time(s)": 0
    },
    {
        "Altitude(m)": 605055.3329610935,
        "Argument of Periapsis(deg)": 0.00010418945913296404,
        "Eccentricity": 0.0,
        "Inclination(deg)": 60.0,
        "Latitude(deg)": -0.6331227767583063,
        "Longitude(deg)": -129.6479596578107,
        "Mean Anomaly(deg)": 180.62010614546185,
        "RAAN(deg)": 149.99957995086027,
        "Satellite Name": "Test1 671",
        "Satellite Number": 671,
        "Semi-Major Axis(m)": 6980739.136638005,
        "Time(s)": 10
    }
]